STARLINK-35556          
1 66238U 25245E   25316.91668981 -.01162723  00000+0 -84028-2 0  9995
2 66238  53.1540 111.7878 0000967  41.0658 225.3907 15.75550843  3312
STARLINK-35554          
1 66239U 25245F   25316.91668981 -.01211608  00000+0 -88421-2 0  9994
2 66239  53.1540 111.7838 0001284  56.1415 212.4389 15.75444384  3155
STARLINK-35546          
1 66240U 25245G   25316.91668981 -.01192983  00000+0 -87308-2 0  9993
2 66240  53.1539 111.7788 0001127  61.5387 209.1130 15.75337001  3315
STARLINK-35497          
1 66241U 25245H   25316.91668981 -.01132734  00000+0 -82713-2 0  9997
2 66241  53.1544 111.7745 0000970  64.2215 208.4528 15.75244370  3263
STARLINK-35480          
1 66242U 25245J   25316.91668981 -.00799682  00000+0 -58288-2 0  9998
2 66242  53.1546 111.7625 0001189  51.1687 227.6394 15.74830403  3311
STARLINK-35495          
1 66243U 25245K   25316.91668981 -.01078604  00000+0 -78786-2 0  9999
2 66243  53.1547 111.7709 0001388  71.6143 203.1394 15.75104022  3312
STARLINK-35517          
1 66244U 25245L   25316.91668981 -.01003603  00000+0 -73012-2 0  9994
2 66244  53.1543 111.7655 0001416  67.9332 208.8119 15.75019031  3108
STARLINK-35503          
1 66245U 25245M   25316.91668981 -.00696213  00000+0 -50332-2 0  9999
2 66245  53.1541 111.7571 0001418  59.4577 221.3346 15.74732708  3264
STARLINK-35434          
1 66246U 25245N   25316.91668981 -.00689744  00000+0 -49992-2 0  9991
2 66246  53.1546 111.7527 0000801  57.7731 225.0000 15.74660642  3107
STARLINK-35481          
1 66247U 25245P   25316.91668981 -.00405173  00000+0 -28643-2 0  9994
2 66247  53.1543 111.7484 0001600  45.8337 238.9721 15.74448663  3318
STARLINK-35416          
1 66248U 25245Q   25316.91668981 -.00259079  00000+0 -18068-2 0  9997
2 66248  53.1547 111.7450 0001282  71.2805 215.5085 15.74349545  3262
STARLINK-35304          
1 66249U 25245R   25316.91668981  .00148660  00000+0  10051-2 0  9993
2 66249  53.1548 111.7321 0001490  64.0065 228.6408 15.74106796  3106
