CCSDS_OMM_VERS = 2.0
CREATION_DATE  = 
ORIGINATOR     = 

OBJECT_NAME    = STARLINK-35556
OBJECT_ID      = 2025-245E
CENTER_NAME    = EARTH
REF_FRAME      = TEME
TIME_SYSTEM    = UTC
MEAN_ELEMENT_THEORY = SGP/SGP4

EPOCH          = 2025-11-12T22:00:01.999584
MEAN_MOTION    = 15.75550843
ECCENTRICITY   = .00009674
INCLINATION    = 53.1540
RA_OF_ASC_NODE = 111.7878
ARG_OF_PERICENTER = 41.0658
MEAN_ANOMALY   = 225.3907

EPHEMERIS_TYPE = 0
CLASSIFICATION_TYPE = U
NORAD_CAT_ID   = 66238
ELEMENT_SET_NO = 999
REV_AT_EPOCH   = 331
BSTAR          = -.84027605E-2
MEAN_MOTION_DOT = -.1162723E-1
MEAN_MOTION_DDOT = 0

CCSDS_OMM_VERS = 2.0
CREATION_DATE  = 
ORIGINATOR     = 

OBJECT_NAME    = STARLINK-35554
OBJECT_ID      = 2025-245F
CENTER_NAME    = EARTH
REF_FRAME      = TEME
TIME_SYSTEM    = UTC
MEAN_ELEMENT_THEORY = SGP/SGP4

EPOCH          = 2025-11-12T22:00:01.999584
MEAN_MOTION    = 15.75444384
ECCENTRICITY   = .00012849
INCLINATION    = 53.1540
RA_OF_ASC_NODE = 111.7838
ARG_OF_PERICENTER = 56.1415
MEAN_ANOMALY   = 212.4389

EPHEMERIS_TYPE = 0
CLASSIFICATION_TYPE = U
NORAD_CAT_ID   = 66239
ELEMENT_SET_NO = 999
REV_AT_EPOCH   = 315
BSTAR          = -.88420747E-2
MEAN_MOTION_DOT = -.1211608E-1
MEAN_MOTION_DDOT = 0

CCSDS_OMM_VERS = 2.0
CREATION_DATE  = 
ORIGINATOR     = 

OBJECT_NAME    = STARLINK-35546
OBJECT_ID      = 2025-245G
CENTER_NAME    = EARTH
REF_FRAME      = TEME
TIME_SYSTEM    = UTC
MEAN_ELEMENT_THEORY = SGP/SGP4

EPOCH          = 2025-11-12T22:00:01.999584
MEAN_MOTION    = 15.75337001
ECCENTRICITY   = .00011275
INCLINATION    = 53.1539
RA_OF_ASC_NODE = 111.7788
ARG_OF_PERICENTER = 61.5387
MEAN_ANOMALY   = 209.1130

EPHEMERIS_TYPE = 0
CLASSIFICATION_TYPE = U
NORAD_CAT_ID   = 66240
ELEMENT_SET_NO = 999
REV_AT_EPOCH   = 331
BSTAR          = -.87307763E-2
MEAN_MOTION_DOT = -.1192983E-1
MEAN_MOTION_DDOT = 0

CCSDS_OMM_VERS = 2.0
CREATION_DATE  = 
ORIGINATOR     = 

OBJECT_NAME    = STARLINK-35497
OBJECT_ID      = 2025-245H
CENTER_NAME    = EARTH
REF_FRAME      = TEME
TIME_SYSTEM    = UTC
MEAN_ELEMENT_THEORY = SGP/SGP4

EPOCH          = 2025-11-12T22:00:01.999584
MEAN_MOTION    = 15.75244370
ECCENTRICITY   = .00009707
INCLINATION    = 53.1544
RA_OF_ASC_NODE = 111.7745
ARG_OF_PERICENTER = 64.2215
MEAN_ANOMALY   = 208.4528

EPHEMERIS_TYPE = 0
CLASSIFICATION_TYPE = U
NORAD_CAT_ID   = 66241
ELEMENT_SET_NO = 999
REV_AT_EPOCH   = 326
BSTAR          = -.82713048E-2
MEAN_MOTION_DOT = -.1132734E-1
MEAN_MOTION_DDOT = 0

CCSDS_OMM_VERS = 2.0
CREATION_DATE  = 
ORIGINATOR     = 

OBJECT_NAME    = STARLINK-35480
OBJECT_ID      = 2025-245J
CENTER_NAME    = EARTH
REF_FRAME      = TEME
TIME_SYSTEM    = UTC
MEAN_ELEMENT_THEORY = SGP/SGP4

EPOCH          = 2025-11-12T22:00:01.999584
MEAN_MOTION    = 15.74830403
ECCENTRICITY   = .00011891
INCLINATION    = 53.1546
RA_OF_ASC_NODE = 111.7625
ARG_OF_PERICENTER = 51.1687
MEAN_ANOMALY   = 227.6394

EPHEMERIS_TYPE = 0
CLASSIFICATION_TYPE = U
NORAD_CAT_ID   = 66242
ELEMENT_SET_NO = 999
REV_AT_EPOCH   = 331
BSTAR          = -.58287806E-2
MEAN_MOTION_DOT = -.799682E-2
MEAN_MOTION_DDOT = 0

CCSDS_OMM_VERS = 2.0
CREATION_DATE  = 
ORIGINATOR     = 

OBJECT_NAME    = STARLINK-35495
OBJECT_ID      = 2025-245K
CENTER_NAME    = EARTH
REF_FRAME      = TEME
TIME_SYSTEM    = UTC
MEAN_ELEMENT_THEORY = SGP/SGP4

EPOCH          = 2025-11-12T22:00:01.999584
MEAN_MOTION    = 15.75104022
ECCENTRICITY   = .00013885
INCLINATION    = 53.1547
RA_OF_ASC_NODE = 111.7709
ARG_OF_PERICENTER = 71.6143
MEAN_ANOMALY   = 203.1394

EPHEMERIS_TYPE = 0
CLASSIFICATION_TYPE = U
NORAD_CAT_ID   = 66243
ELEMENT_SET_NO = 999
REV_AT_EPOCH   = 331
BSTAR          = -.78786283E-2
MEAN_MOTION_DOT = -.1078604E-1
MEAN_MOTION_DDOT = 0

CCSDS_OMM_VERS = 2.0
CREATION_DATE  = 
ORIGINATOR     = 

OBJECT_NAME    = STARLINK-35517
OBJECT_ID      = 2025-245L
CENTER_NAME    = EARTH
REF_FRAME      = TEME
TIME_SYSTEM    = UTC
MEAN_ELEMENT_THEORY = SGP/SGP4

EPOCH          = 2025-11-12T22:00:01.999584
MEAN_MOTION    = 15.75019031
ECCENTRICITY   = .00014164
INCLINATION    = 53.1543
RA_OF_ASC_NODE = 111.7655
ARG_OF_PERICENTER = 67.9332
MEAN_ANOMALY   = 208.8119

EPHEMERIS_TYPE = 0
CLASSIFICATION_TYPE = U
NORAD_CAT_ID   = 66244
ELEMENT_SET_NO = 999
REV_AT_EPOCH   = 310
BSTAR          = -.73011567E-2
MEAN_MOTION_DOT = -.1003603E-1
MEAN_MOTION_DDOT = 0

CCSDS_OMM_VERS = 2.0
CREATION_DATE  = 
ORIGINATOR     = 

OBJECT_NAME    = STARLINK-35503
OBJECT_ID      = 2025-245M
CENTER_NAME    = EARTH
REF_FRAME      = TEME
TIME_SYSTEM    = UTC
MEAN_ELEMENT_THEORY = SGP/SGP4

EPOCH          = 2025-11-12T22:00:01.999584
MEAN_MOTION    = 15.74732708
ECCENTRICITY   = .00014187
INCLINATION    = 53.1541
RA_OF_ASC_NODE = 111.7571
ARG_OF_PERICENTER = 59.4577
MEAN_ANOMALY   = 221.3346

EPHEMERIS_TYPE = 0
CLASSIFICATION_TYPE = U
NORAD_CAT_ID   = 66245
ELEMENT_SET_NO = 999
REV_AT_EPOCH   = 326
BSTAR          = -.50331566E-2
MEAN_MOTION_DOT = -.696213E-2
MEAN_MOTION_DDOT = 0

CCSDS_OMM_VERS = 2.0
CREATION_DATE  = 
ORIGINATOR     = 

OBJECT_NAME    = STARLINK-35434
OBJECT_ID      = 2025-245N
CENTER_NAME    = EARTH
REF_FRAME      = TEME
TIME_SYSTEM    = UTC
MEAN_ELEMENT_THEORY = SGP/SGP4

EPOCH          = 2025-11-12T22:00:01.999584
MEAN_MOTION    = 15.74660642
ECCENTRICITY   = .00008016
INCLINATION    = 53.1546
RA_OF_ASC_NODE = 111.7527
ARG_OF_PERICENTER = 57.7731
MEAN_ANOMALY   = 225.0000

EPHEMERIS_TYPE = 0
CLASSIFICATION_TYPE = U
NORAD_CAT_ID   = 66246
ELEMENT_SET_NO = 999
REV_AT_EPOCH   = 310
BSTAR          = -.49992458E-2
MEAN_MOTION_DOT = -.689744E-2
MEAN_MOTION_DDOT = 0

CCSDS_OMM_VERS = 2.0
CREATION_DATE  = 
ORIGINATOR     = 

OBJECT_NAME    = STARLINK-35481
OBJECT_ID      = 2025-245P
CENTER_NAME    = EARTH
REF_FRAME      = TEME
TIME_SYSTEM    = UTC
MEAN_ELEMENT_THEORY = SGP/SGP4

EPOCH          = 2025-11-12T22:00:01.999584
MEAN_MOTION    = 15.74448663
ECCENTRICITY   = .00016
INCLINATION    = 53.1543
RA_OF_ASC_NODE = 111.7484
ARG_OF_PERICENTER = 45.8337
MEAN_ANOMALY   = 238.9721

EPHEMERIS_TYPE = 0
CLASSIFICATION_TYPE = U
NORAD_CAT_ID   = 66247
ELEMENT_SET_NO = 999
REV_AT_EPOCH   = 331
BSTAR          = -.28642857E-2
MEAN_MOTION_DOT = -.405173E-2
MEAN_MOTION_DDOT = 0

CCSDS_OMM_VERS = 2.0
CREATION_DATE  = 
ORIGINATOR     = 

OBJECT_NAME    = STARLINK-35416
OBJECT_ID      = 2025-245Q
CENTER_NAME    = EARTH
REF_FRAME      = TEME
TIME_SYSTEM    = UTC
MEAN_ELEMENT_THEORY = SGP/SGP4

EPOCH          = 2025-11-12T22:00:01.999584
MEAN_MOTION    = 15.74349545
ECCENTRICITY   = .00012825
INCLINATION    = 53.1547
RA_OF_ASC_NODE = 111.7450
ARG_OF_PERICENTER = 71.2805
MEAN_ANOMALY   = 215.5085

EPHEMERIS_TYPE = 0
CLASSIFICATION_TYPE = U
NORAD_CAT_ID   = 66248
ELEMENT_SET_NO = 999
REV_AT_EPOCH   = 326
BSTAR          = -.18067953E-2
MEAN_MOTION_DOT = -.259079E-2
MEAN_MOTION_DDOT = 0

CCSDS_OMM_VERS = 2.0
CREATION_DATE  = 
ORIGINATOR     = 

OBJECT_NAME    = STARLINK-35304
OBJECT_ID      = 2025-245R
CENTER_NAME    = EARTH
REF_FRAME      = TEME
TIME_SYSTEM    = UTC
MEAN_ELEMENT_THEORY = SGP/SGP4

EPOCH          = 2025-11-12T22:00:01.999584
MEAN_MOTION    = 15.74106796
ECCENTRICITY   = .00014907
INCLINATION    = 53.1548
RA_OF_ASC_NODE = 111.7321
ARG_OF_PERICENTER = 64.0065
MEAN_ANOMALY   = 228.6408

EPHEMERIS_TYPE = 0
CLASSIFICATION_TYPE = U
NORAD_CAT_ID   = 66249
ELEMENT_SET_NO = 999
REV_AT_EPOCH   = 310
BSTAR          = .10050638E-2
MEAN_MOTION_DOT = .14866E-2
MEAN_MOTION_DDOT = 0

